{
    "links": {
        "self": "http://www.neowsapp.com/rest/v1/neo/3827097?api_key=iIulBulltgU6a56xZRHN4H3l9WmuAYTsLGpBGhQ2"
    },
    "id": "3827097",
    "neo_reference_id": "3827097",
    "name": "(2018 QH1)",
    "designation": "2018 QH1",
    "nasa_jpl_url": "http://ssd.jpl.nasa.gov/sbdb.cgi?sstr=3827097",
    "absolute_magnitude_h": 25.4,
    "estimated_diameter": {
        "kilometers": {
            "estimated_diameter_min": 0.022108281,
            "estimated_diameter_max": 0.0494356193
        },
        "meters": {
            "estimated_diameter_min": 22.1082810359,
            "estimated_diameter_max": 49.435619262
        },
        "miles": {
            "estimated_diameter_min": 0.0137374447,
            "estimated_diameter_max": 0.0307178602
        },
        "feet": {
            "estimated_diameter_min": 72.5337327539,
            "estimated_diameter_max": 162.1903570994
        }
    },
    "is_potentially_hazardous_asteroid": false,
    "close_approach_data": [
        {
            "close_approach_date": "2018-08-27",
            "close_approach_date_full": "2018-Aug-27 20:36",
            "epoch_date_close_approach": 1535402160000,
            "relative_velocity": {
                "kilometers_per_second": "12.4568058153",
                "kilometers_per_hour": "44844.5009352024",
                "miles_per_hour": "27864.6289283206"
            },
            "miss_distance": {
                "astronomical": "0.0338447507",
                "lunar": "13.1656080223",
                "kilometers": "5063102.615401009",
                "miles": "3146066.0801875642"
            },
            "orbiting_body": "Earth"
        },
        {
            "close_approach_date": "2019-02-10",
            "close_approach_date_full": "2019-Feb-10 20:42",
            "epoch_date_close_approach": 1549831320000,
            "relative_velocity": {
                "kilometers_per_second": "10.1182256826",
                "kilometers_per_hour": "36425.6124572995",
                "miles_per_hour": "22633.4590293704"
            },
            "miss_distance": {
                "astronomical": "0.4315571418",
                "lunar": "167.8757281602",
                "kilometers": "64560029.196567966",
                "miles": "40115741.9510752908"
            },
            "orbiting_body": "Earth"
        },
        {
            "close_approach_date": "2022-01-24",
            "close_approach_date_full": "2022-Jan-24 02:16",
            "epoch_date_close_approach": 1642990560000,
            "relative_velocity": {
                "kilometers_per_second": "19.3965388136",
                "kilometers_per_hour": "69827.5397291083",
                "miles_per_hour": "43388.117672234"
            },
            "miss_distance": {
                "astronomical": "0.3833357976",
                "lunar": "149.1176252664",
                "kilometers": "57346218.815711112",
                "miles": "35633288.0345608656"
            },
            "orbiting_body": "Earth"
        },
        {
            "close_approach_date": "2097-01-17",
            "close_approach_date_full": "2097-Jan-17 03:50",
            "epoch_date_close_approach": 4009233000000,
            "relative_velocity": {
                "kilometers_per_second": "11.838671983",
                "kilometers_per_hour": "42619.2191388896",
                "miles_per_hour": "26481.9253588284"
            },
            "miss_distance": {
                "astronomical": "0.2084314896",
                "lunar": "81.0798494544",
                "kilometers": "31180906.885087152",
                "miles": "19374917.1115486176"
            },
            "orbiting_body": "Earth"
        },
        {
            "close_approach_date": "2183-01-20",
            "close_approach_date_full": "2183-Jan-20 21:02",
            "epoch_date_close_approach": 6723378120000,
            "relative_velocity": {
                "kilometers_per_second": "10.0001632748",
                "kilometers_per_hour": "36000.5877894186",
                "miles_per_hour": "22369.3652294862"
            },
            "miss_distance": {
                "astronomical": "0.2248717744",
                "lunar": "87.4751202416",
                "kilometers": "33640338.473360528",
                "miles": "20903137.0360021664"
            },
            "orbiting_body": "Earth"
        }
    ],
    "orbital_data": {
        "orbit_id": "1",
        "orbit_determination_date": "2018-08-25 11:12:03",
        "first_observation_date": "2018-08-21",
        "last_observation_date": "2018-08-25",
        "data_arc_in_days": 4,
        "observations_used": 17,
        "orbit_uncertainty": "8",
        "minimum_orbit_intersection": ".0273878",
        "jupiter_tisserand_invariant": "4.779",
        "epoch_osculation": "2458352.5",
        "eccentricity": ".3439274188176934",
        "semi_major_axis": "1.34708042618472",
        "inclination": "16.54549835951065",
        "ascending_node_longitude": "331.9415706020692",
        "orbital_period": "571.0691707361782",
        "perihelion_distance": ".8837825322671711",
        "perihelion_argument": "67.24278208144898",
        "aphelion_distance": "1.810378320102269",
        "perihelion_time": "2458409.900768094471",
        "mean_anomaly": "323.8147573482722",
        "mean_motion": ".6303964886353711",
        "equinox": "J2000",
        "orbit_class": {
            "orbit_class_type": "APO",
            "orbit_class_description": "Near-Earth asteroid orbits which cross the Earth’s orbit similar to that of 1862 Apollo",
            "orbit_class_range": "a (semi-major axis) > 1.0 AU; q (perihelion) < 1.017 AU"
        }
    },
    "is_sentry_object": false
}